{"fetched_at":"2026-03-29T16:36:15Z","count":15609,"tles":[{"name":"STARLINK-33732","line1":"1 63575U 25076G   26087.74955304  .00025751  00000+0  94109-3 0  9991","line2":"2 63575  43.0012 214.2102 0001417 257.5532 102.5161 15.27612463 54745","category":"Starlink"}]}